SYRACUSE 4B             
1 57214U 23093B   26175.38300657  .00000000  00000+0  00000+0 0  9997
2 57214   0.0239  21.5852 0000267 108.5537 273.8248  1.00269725  7038
JUPITER 3 (ECHOSTAR 24) 
1 57479U 23108A   26176.50440607  .00000000  00000+0  00000+0 0  9992
2 57479   0.0219  12.3731 0001140  77.1550 270.4850  1.00270232 10738
GALAXY 37 (G-37)        
1 57493U 23112A   26177.30530953  .00000059  00000+0  00000+0 0  9990
2 57493   0.0133  50.5566 0002231  41.3514 165.4346  1.00271677 10630
LUDI TANCE-4 01A        
1 57624U 23120A   26177.04174515 -.00000154  00000+0  00000+0 0  9991
2 57624  15.0986 193.7428 0001354  22.0692 162.9814  1.00268051 10637
TJS-10                  
1 58204U 23169A   26176.70892756 -.00000241  00000+0  00000+0 0  9992
2 58204   2.5665  80.3985 0003897 103.7628  77.3463  1.00272103  9625
ZHONGXING-6E            
1 58253U 23172A   26176.97557212 -.00000351  00000+0  00000+0 0  9996
2 58253   0.0373 262.0640 0002644 191.5667 287.1656  1.00277070  9748
YAOGAN-41               
1 58582U 23197A   26177.26230200 -.00000348  00000+0  00000+0 0  9992
2 58582   3.1118 313.2887 0014137 195.3283 343.3324  1.00276694  9414
OVZON-3                 
1 58698U 24003A   26177.24970127  .00000000  00000+0  00000+0 0  9998
2 58698   0.0161  39.0134 0000259  69.2413 315.7071  1.00273292  7532
INSAT-3DS               
1 58990U 24033A   26177.11160913 -.00000145  00000+0  00000+0 0  9997
2 58990   0.0597 101.6372 0001448 343.2032 311.6553  1.00270750 47151
MERAH PUTIH 2           
1 58995U 24035A   26176.97513878 -.00000347  00000+0  00000+0 0  9993
2 58995   0.0161  47.4615 0001528  47.8430 282.7990  1.00276156  8671
TJS-11                  
1 59020U 24037A   26176.97505211 -.00000351  00000+0  00000+0 0  9992
2 59020   4.1874 327.1983 0003443 114.9735 295.6196  1.00272649  8679
HULIANWAN GAOGUI-01 (H*)
1 59069U 24040A   26177.10198907  .00000167  00000+0  00000+0 0  9999
2 59069   0.0689 330.8922 0002954  74.7302 298.9013  1.00273849  7412
EUTELSAT 36D            
1 59346U 24059A   26177.24502125  .00000000  00000+0  00000+0 0  9999
2 59346   0.0252  20.6329 0000411  96.9337 280.8543  1.00269759  8235
PAKSAT-MM1              
1 59915U 24104A   26176.53251992  .00000164  00000+0  00000+0 0  9997
2 59915   0.0388  91.2975 0002838 342.6532  69.5789  1.00270693  7615
ASTRA 1P (SES-24)       
1 60086U 24115A   26175.90625000  .00000129  00000+0  00000+0 0  9996
2 60086   0.0595 340.0652 0000828  24.8630 253.5862  1.00274964  7272
GOES 19                 
1 60133U 24119A   26177.22300781 -.00000237  00000+0  00000+0 0  9997
2 60133   0.0453 166.5517 0000515 335.3386 137.5498  1.00271440  7058
ZHONGXING-3A            
1 60179U 24122A   26177.25793465 -.00000302  00000+0  00000+0 0  9992
2 60179   0.0422 127.6398 0001472 352.7499 348.4318  1.00270889  7409
TURKSAT 6A              
1 60233U 24127A   26176.36016859  .00000156  00000+0  00000+0 0  9990
2 60233   0.0588 220.3166 0001925 272.6888 312.1748  1.00275873  7090
HULIANWAN GAOGUI-02 (H*)
1 60327U 24135A   26176.15044834 -.00000164  00000+0  00000+0 0  9994
2 60327   0.0431 357.3362 0007449  13.5264 109.6933  1.00271607  7587
ZHONGXING-4A            
1 60606U 24151A   26177.04746519 -.00000350  00000+0  00000+0 0  9997
2 60606   1.2914 270.7135 0000508 208.0565 290.7105  1.00269746  6848
HULIANWAN GAOGUI-03 (H*)
1 61503U 24181A   26176.36713690 -.00000231  00000+0  00000+0 0  9993
2 61503   0.0460 358.5440 0001415  93.2530 236.7381  1.00273676  6906
DSN-3 (KIRAMEKI-3)      
1 61733U 24198A   26176.90999103 -.00000240  00000+0  00000+0 0  9991
2 61733   0.0170 330.8442 0000936 145.3294 269.4917  1.00269696  6003
KOREASAT 6A             
1 61910U 24206A   26176.97574545  .00000000  00000+0  00000+0 0  9997
2 61910   0.0153  12.1464 0001095  70.4247 298.8295  1.00269372  5924
OPTUS-X (ADS-01)        
1 62006U 24212A   26177.27737160 -.00000132  00000+0  00000+0 0  9996
2 62006   0.0189   1.0052 0002240 127.9589  41.6757  1.00272035  5859
GSAT-N2 (GSAT-20)       
1 62028U 24214A   26177.18003951 -.00000008  00000+0  00000+0 0  9998
2 62028   0.0579 103.3823 0002209 342.1410 321.5328  1.00272136  5987
SXM-9                   
1 62259U 24234A   26177.29445979 -.00000194  00000+0  00000+0 0  9994
2 62259   0.0124 341.5700 0004660 336.2086 337.4858  1.00269553  5663
TJS-12                  
1 62374U 24246A   26175.78309433 -.00000223  00000+0  00000+0 0  9994
2 62374   0.6533 299.9327 0002109  91.7487 309.6330  1.00268446  5640
NUVIEW ALPHA            
1 62455U 24252B   26177.29449519 -.00000204  00000+0  00000+0 0  9998
2 62455   0.0489  28.9040 0001079  32.9903 235.4616  1.00273109  3914
AGILA                   
1 62456U 24252C   26176.91155104 -.00000171  00000+0  00000+0 0  9994
2 62456   0.0625 126.2276 0001610 345.9517 282.1734  1.00271724  5248
NUVIEW BRAVO            
1 62457U 24252D   26177.29436391 -.00000204  00000+0  00000+0 0  9994
2 62457   0.0722 152.6714 0002162 329.7634 174.8592  1.00272368  3882
THURAYA-4               
1 62483U 25001A   26177.24666793  .00000150  00000+0  00000+0 0  9991
2 62483   0.0224  64.0890 0000171 334.6635   8.7277  1.00272414  4263
