OBJECT_NAME,OBJECT_ID,EPOCH,MEAN_MOTION,ECCENTRICITY,INCLINATION,RA_OF_ASC_NODE,ARG_OF_PERICENTER,MEAN_ANOMALY,EPHEMERIS_TYPE,CLASSIFICATION_TYPE,NORAD_CAT_ID,ELEMENT_SET_NO,REV_AT_EPOCH,BSTAR,MEAN_MOTION_DOT,MEAN_MOTION_DDOT
SYRACUSE 4B,2023-093B,2026-06-24T09:11:31.767648,1.00269725,.00002671,0.0239,21.5852,108.5537,273.8248,0,U,57214,999,703,0,0,0
JUPITER 3 (ECHOSTAR 24),2023-108A,2026-06-25T12:06:20.684448,1.00270232,.00011407,0.0219,12.3731,77.1550,270.4850,0,U,57479,999,1073,0,0,0
GALAXY 37 (G-37),2023-112A,2026-06-26T07:19:38.743392,1.00271677,.00022319,0.0133,50.5566,41.3514,165.4346,0,U,57493,999,1063,0,.59E-6,0
LUDI TANCE-4 01A,2023-120A,2026-06-26T01:00:06.780960,1.00268051,.00013548,15.0986,193.7428,22.0692,162.9814,0,U,57624,999,1063,0,-.154E-5,0
TJS-10,2023-169A,2026-06-25T17:00:51.341184,1.00272103,.0003897,2.5665,80.3985,103.7628,77.3463,0,U,58204,999,962,0,-.241E-5,0
ZHONGXING-6E,2023-172A,2026-06-25T23:24:49.431168,1.00277070,.00026446,0.0373,262.0640,191.5667,287.1656,0,U,58253,999,974,0,-.351E-5,0
YAOGAN-41,2023-197A,2026-06-26T06:17:42.892800,1.00276694,.00141374,3.1118,313.2887,195.3283,343.3324,0,U,58582,999,941,0,-.348E-5,0
OVZON-3,2024-003A,2026-06-26T05:59:34.189728,1.00273292,.00002599,0.0161,39.0134,69.2413,315.7071,0,U,58698,999,753,0,0,0
INSAT-3DS,2024-033A,2026-06-26T02:40:43.028832,1.00270750,.00014489,0.0597,101.6372,343.2032,311.6553,0,U,58990,999,4715,0,-.145E-5,0
MERAH PUTIH 2,2024-035A,2026-06-25T23:24:11.990592,1.00276156,.0001528,0.0161,47.4615,47.8430,282.7990,0,U,58995,999,867,0,-.347E-5,0
TJS-11,2024-037A,2026-06-25T23:24:04.502304,1.00272649,.0003443,4.1874,327.1983,114.9735,295.6196,0,U,59020,999,867,0,-.351E-5,0
HULIANWAN GAOGUI-01 (HG-01),2024-040A,2026-06-26T02:26:51.855648,1.00273849,.00029544,0.0689,330.8922,74.7302,298.9013,0,U,59069,999,741,0,.167E-5,0
EUTELSAT 36D,2024-059A,2026-06-26T05:52:49.836000,1.00269759,.00004111,0.0252,20.6329,96.9337,280.8543,0,U,59346,999,823,0,0,0
PAKSAT-MM1,2024-104A,2026-06-25T12:46:49.721088,1.00270693,.0002838,0.0388,91.2975,342.6532,69.5789,0,U,59915,999,761,0,.164E-5,0
ASTRA 1P (SES-24),2024-115A,2026-06-24T21:45:00.000000,1.00274964,.00008284,0.0595,340.0652,24.8630,253.5862,0,U,60086,999,727,0,.129E-5,0
GOES 19,2024-119A,2026-06-26T05:21:07.874784,1.00271440,.00005159,0.0453,166.5517,335.3386,137.5498,0,U,60133,999,705,0,-.237E-5,0
ZHONGXING-3A,2024-122A,2026-06-26T06:11:25.553760,1.00270889,.0001472,0.0422,127.6398,352.7499,348.4318,0,U,60179,999,740,0,-.302E-5,0
TURKSAT 6A,2024-127A,2026-06-25T08:38:38.566176,1.00275873,.0001925,0.0588,220.3166,272.6888,312.1748,0,U,60233,999,709,0,.156E-5,0
HULIANWAN GAOGUI-02 (HG-02),2024-135A,2026-06-25T03:36:38.736576,1.00271607,.0007449,0.0431,357.3362,13.5264,109.6933,0,U,60327,999,758,0,-.164E-5,0
ZHONGXING-4A,2024-151A,2026-06-26T01:08:20.992416,1.00269746,.00005084,1.2914,270.7135,208.0565,290.7105,0,U,60606,999,684,0,-.35E-5,0
HULIANWAN GAOGUI-03 (HG-03),2024-181A,2026-06-25T08:48:40.628160,1.00273676,.0001415,0.0460,358.5440,93.2530,236.7381,0,U,61503,999,690,0,-.231E-5,0
DSN-3 (KIRAMEKI-3),2024-198A,2026-06-25T21:50:23.224992,1.00269696,.00009361,0.0170,330.8442,145.3294,269.4917,0,U,61733,999,600,0,-.24E-5,0
KOREASAT 6A,2024-206A,2026-06-25T23:25:04.406880,1.00269372,.00010957,0.0153,12.1464,70.4247,298.8295,0,U,61910,999,592,0,0,0
OPTUS-X (ADS-01),2024-212A,2026-06-26T06:39:24.906240,1.00272035,.00022401,0.0189,1.0052,127.9589,41.6757,0,U,62006,999,585,0,-.132E-5,0
GSAT-N2 (GSAT-20),2024-214A,2026-06-26T04:19:15.413664,1.00272136,.00022094,0.0579,103.3823,342.1410,321.5328,0,U,62028,999,598,0,-.8E-7,0
SXM-9,2024-234A,2026-06-26T07:04:01.325856,1.00269553,.00046604,0.0124,341.5700,336.2086,337.4858,0,U,62259,999,566,0,-.194E-5,0
TJS-12,2024-246A,2026-06-24T18:47:39.350112,1.00268446,.00021091,0.6533,299.9327,91.7487,309.6330,0,U,62374,999,564,0,-.223E-5,0
NUVIEW ALPHA,2024-252B,2026-06-26T07:04:04.384416,1.00273109,.00010794,0.0489,28.9040,32.9903,235.4616,0,U,62455,999,391,0,-.204E-5,0
AGILA,2024-252C,2026-06-25T21:52:38.009856,1.00271724,.00016109,0.0625,126.2276,345.9517,282.1734,0,U,62456,999,524,0,-.171E-5,0
NUVIEW BRAVO,2024-252D,2026-06-26T07:03:53.041824,1.00272368,.00021623,0.0722,152.6714,329.7634,174.8592,0,U,62457,999,388,0,-.204E-5,0
THURAYA-4,2025-001A,2026-06-26T05:55:12.109152,1.00272414,.00001711,0.0224,64.0890,334.6635,8.7277,0,U,62483,999,426,0,.15E-5,0
